[{"OBJECT_NAME":"FLOCK 4Q-22","OBJECT_ID":"2023-174BC","EPOCH":"2026-03-09T19:17:02.588352","MEAN_MOTION":15.52193372,"ECCENTRICITY":0.00064915,"INCLINATION":97.3842,"RA_OF_ASC_NODE":157.7616,"ARG_OF_PERICENTER":145.1579,"MEAN_ANOMALY":215.01,"EPHEMERIS_TYPE":0,"CLASSIFICATION_TYPE":"U","NORAD_CAT_ID":58306,"ELEMENT_SET_NO":999,"REV_AT_EPOCH":13041,"BSTAR":0.00065133001,"MEAN_MOTION_DOT":0.00039526,"MEAN_MOTION_DDOT":0},{"OBJECT_NAME":"FLOCK 4G-32","OBJECT_ID":"2025-009AL","EPOCH":"2026-03-09T17:58:49.493280","MEAN_MOTION":15.53526592,"ECCENTRICITY":0.00027947,"INCLINATION":97.3892,"RA_OF_ASC_NODE":153.7011,"ARG_OF_PERICENTER":255.7695,"MEAN_ANOMALY":104.3248,"EPHEMERIS_TYPE":0,"CLASSIFICATION_TYPE":"U","NORAD_CAT_ID":62643,"ELEMENT_SET_NO":999,"REV_AT_EPOCH":6390,"BSTAR":0.002363749,"MEAN_MOTION_DOT":0.00152805,"MEAN_MOTION_DDOT":0}]
