FLOCK 4Q-22             
1 58306U 23174BC  26068.80350218  .00039526  00000+0  65133-3 0  9993
2 58306  97.3842 157.7616 0006491 145.1579 215.0100 15.52193372130418
FLOCK 4G-32             
1 62643U 25009AL  26068.74918395  .00152805  00000+0  23637-2 0  9998
2 62643  97.3892 153.7011 0002795 255.7695 104.3248 15.53526592 63904
